[
    {
        "CCSDS_OMM_VERS": "3.0",
        "COMMENT": "GENERATED VIA SPACE-TRACK.ORG API",
        "CREATION_DATE": "2025-04-12T22:09:39",
        "ORIGINATOR": "18 SPCS",
        "OBJECT_NAME": "BEIDOU 3M19",
        "OBJECT_ID": "2019-090A",
        "CENTER_NAME": "EARTH",
        "REF_FRAME": "TEME",
        "TIME_SYSTEM": "UTC",
        "MEAN_ELEMENT_THEORY": "SGP4",
        "EPOCH": "2025-04-12T12:45:27.571104",
        "MEAN_MOTION": "1.86231780",
        "ECCENTRICITY": "0.00200060",
        "INCLINATION": "56.1813",
        "RA_OF_ASC_NODE": "77.0670",
        "ARG_OF_PERICENTER": "288.8467",
        "MEAN_ANOMALY": "232.3370",
        "EPHEMERIS_TYPE": "0",
        "CLASSIFICATION_TYPE": "U",
        "NORAD_CAT_ID": "44864",
        "ELEMENT_SET_NO": "999",
        "REV_AT_EPOCH": "3621",
        "BSTAR": "0.00000000000000",
        "MEAN_MOTION_DOT": "-0.00000016",
        "MEAN_MOTION_DDOT": "0.0000000000000",
        "SEMIMAJOR_AXIS": "27906.111",
        "PERIOD": "773.230",
        "APOAPSIS": "21583.805",
        "PERIAPSIS": "21472.147",
        "OBJECT_TYPE": "PAYLOAD",
        "RCS_SIZE": "LARGE",
        "COUNTRY_CODE": "PRC",
        "LAUNCH_DATE": "2019-12-16",
        "SITE": "XSC",
        "DECAY_DATE": null,
        "FILE": "4699941",
        "GP_ID": "285448092",
        "TLE_LINE0": "0 BEIDOU 3M19",
        "TLE_LINE1": "1 44864U 19090A   25102.53156911 -.00000016  00000-0  00000-0 0  9994",
        "TLE_LINE2": "2 44864  56.1813  77.0670 0020006 288.8467 232.3370  1.86231780 36218"
    }
]